{"type":"FeatureCollection","features":[{"type":"Feature","properties":{"lineId":"U1","name":"U1","longName":"Oberlaa - Leopoldau","mode":"underground","color":"#E3000F","stops":[{"name":"Oberlaa","lon":16.39995,"lat":48.14234},{"name":"Neulaa","lon":16.38615,"lat":48.14567},{"name":"Alaudagasse","lon":16.38243,"lat":48.15349},{"name":"Altes Landgut","lon":16.38355,"lat":48.16199},{"name":"Troststraße","lon":16.38043,"lat":48.16901},{"name":"Reumannplatz","lon":16.37799,"lat":48.17487},{"name":"Keplerplatz","lon":16.37619,"lat":48.17928},{"name":"Südtiroler Pl. - Hbf.","lon":16.37358,"lat":48.18713},{"name":"Taubstummengasse","lon":16.3704,"lat":48.19381},{"name":"Karlsplatz","lon":16.36901,"lat":48.20122},{"name":"Stephansplatz","lon":16.37209,"lat":48.20842},{"name":"Schwedenplatz","lon":16.37825,"lat":48.21189},{"name":"Nestroyplatz","lon":16.38552,"lat":48.21526},{"name":"Praterstern","lon":16.39293,"lat":48.21961},{"name":"Vorgartenstraße","lon":16.40114,"lat":48.22362},{"name":"Donauinsel","lon":16.41143,"lat":48.22915},{"name":"Kaisermühlen-VIC","lon":16.41651,"lat":48.23282},{"name":"Alte Donau","lon":16.42451,"lat":48.23808},{"name":"Kagran","lon":16.43325,"lat":48.24318},{"name":"Kagraner Platz","lon":16.44343,"lat":48.25036},{"name":"Rennbahnweg","lon":16.44965,"lat":48.25756},{"name":"Aderklaaer Straße","lon":16.45167,"lat":48.26342},{"name":"Großfeldsiedlung","lon":16.44795,"lat":48.27104},{"name":"Leopoldau","lon":16.45209,"lat":48.27756}],"lengthKm":19.1},"geometry":{"type":"LineString","coordinates":[[16.39997,48.14235],[16.39894,48.1426],[16.39853,48.14269],[16.39806,48.14279],[16.39632,48.14313],[16.39599,48.1432],[16.39566,48.14328],[16.39098,48.14445],[16.39023,48.14464],[16.38972,48.14478],[16.38785,48.14528],[16.38759,48.14534],[16.38616,48.14569],[16.38507,48.14595],[16.3848,48.14602],[16.38467,48.14606],[16.38453,48.1461],[16.3844,48.14615],[16.38427,48.14619],[16.38415,48.14624],[16.38403,48.1463],[16.38393,48.14635],[16.38383,48.1464],[16.38374,48.14646],[16.38365,48.14652],[16.38356,48.14658],[16.38348,48.14664],[16.3834,48.1467],[16.38332,48.14678],[16.38325,48.14685],[16.38317,48.14693],[16.38311,48.147],[16.38304,48.14708],[16.38297,48.14719],[16.38289,48.1473],[16.38283,48.14742],[16.38277,48.14753],[16.38272,48.14765],[16.38269,48.14776],[16.38266,48.14788],[16.38263,48.148],[16.38261,48.14811],[16.3826,48.14823],[16.38259,48.14835],[16.38258,48.14847],[16.38258,48.1487],[16.38258,48.14913],[16.38258,48.14944],[16.3826,48.14979],[16.38262,48.15024],[16.38263,48.15042],[16.38262,48.15059],[16.38255,48.15233],[16.38252,48.15271],[16.3825,48.15288],[16.38245,48.15349],[16.38236,48.15473],[16.38234,48.15507],[16.38233,48.15524],[16.38232,48.15542],[16.38232,48.15559],[16.38233,48.15576],[16.38235,48.15594],[16.38239,48.15611],[16.38243,48.15628],[16.38249,48.15645],[16.38255,48.15661],[16.38262,48.15678],[16.38275,48.15712],[16.38372,48.15947],[16.38378,48.15961],[16.38383,48.15976],[16.38387,48.1599],[16.38391,48.16005],[16.38394,48.16021],[16.38396,48.16036],[16.38396,48.1605],[16.38396,48.16068],[16.38395,48.16083],[16.38393,48.16099],[16.38389,48.16114],[16.38385,48.16129],[16.3838,48.16144],[16.38375,48.16159],[16.38369,48.16174],[16.38358,48.16199],[16.38314,48.16307],[16.38304,48.16329],[16.38296,48.16346],[16.38288,48.16362],[16.38246,48.16433],[16.38236,48.16452],[16.38227,48.16471],[16.38221,48.16486],[16.38048,48.16903],[16.38014,48.16984],[16.38,48.17016],[16.37984,48.1705],[16.37963,48.17098],[16.37911,48.17225],[16.37879,48.17299],[16.37801,48.17488],[16.37771,48.17559],[16.37762,48.17581],[16.3774,48.17624],[16.37731,48.17645],[16.37689,48.17746],[16.37678,48.17774],[16.37672,48.1779],[16.37658,48.17835],[16.37653,48.17849],[16.37643,48.17875],[16.37621,48.17928],[16.37583,48.18023],[16.37576,48.18037],[16.37556,48.18081],[16.3755,48.18095],[16.37518,48.18172],[16.37506,48.18205],[16.37435,48.18404],[16.37429,48.18423],[16.37423,48.18443],[16.3742,48.18457],[16.37417,48.18472],[16.37414,48.18491],[16.37411,48.18511],[16.37407,48.18551],[16.37405,48.18571],[16.37402,48.18591],[16.37398,48.18606],[16.37395,48.18621],[16.3739,48.18636],[16.37384,48.18656],[16.37376,48.18675],[16.37361,48.18714],[16.37346,48.1875],[16.37339,48.18766],[16.3733,48.18785],[16.37321,48.18801],[16.37312,48.18817],[16.37174,48.1906],[16.37166,48.19073],[16.37157,48.1909],[16.37149,48.19107],[16.37136,48.19135],[16.37131,48.19148],[16.37122,48.19169],[16.37119,48.19178],[16.37114,48.19195],[16.37094,48.1926],[16.37089,48.19275],[16.37084,48.1929],[16.37074,48.19315],[16.37066,48.19332],[16.37048,48.1937],[16.37042,48.19382],[16.37025,48.19417],[16.37018,48.19431],[16.3701,48.19444],[16.37001,48.19458],[16.36993,48.1947],[16.36985,48.19482],[16.36975,48.19494],[16.36964,48.19507],[16.36953,48.1952],[16.3694,48.19533],[16.36891,48.19583],[16.36879,48.19596],[16.36867,48.19609],[16.36856,48.19622],[16.36846,48.19635],[16.36835,48.19649],[16.36826,48.19664],[16.36818,48.19679],[16.36811,48.19695],[16.36805,48.1971],[16.36799,48.19726],[16.36795,48.19742],[16.36792,48.19758],[16.3679,48.19774],[16.36789,48.19787],[16.36789,48.19795],[16.36789,48.19802],[16.3679,48.19816],[16.36792,48.19831],[16.36794,48.19845],[16.36797,48.19859],[16.36802,48.19882],[16.36807,48.19904],[16.36814,48.19927],[16.36819,48.19942],[16.36826,48.19959],[16.36832,48.19975],[16.3684,48.19991],[16.36852,48.20015],[16.36906,48.20121],[16.37008,48.20317],[16.37017,48.20336],[16.37026,48.20355],[16.37035,48.20374],[16.37042,48.20394],[16.37047,48.20411],[16.37051,48.20429],[16.37055,48.20447],[16.37057,48.20465],[16.37058,48.20483],[16.37059,48.20502],[16.3706,48.2057],[16.3706,48.20585],[16.37061,48.20601],[16.37063,48.20613],[16.37064,48.20625],[16.37067,48.20637],[16.3707,48.20649],[16.37074,48.20661],[16.37077,48.20669],[16.3708,48.20678],[16.37084,48.20687],[16.37091,48.207],[16.37099,48.20714],[16.37107,48.20727],[16.37117,48.2074],[16.37123,48.20749],[16.37131,48.20757],[16.37138,48.20766],[16.37154,48.20783],[16.37177,48.20805],[16.37213,48.2084],[16.37305,48.20928],[16.37329,48.2095],[16.37359,48.20976],[16.37391,48.21002],[16.37424,48.21026],[16.37458,48.2105],[16.37474,48.2106],[16.37491,48.21071],[16.37508,48.21081],[16.37525,48.21091],[16.37543,48.211],[16.37561,48.21109],[16.37578,48.21116],[16.37596,48.21123],[16.37613,48.2113],[16.37631,48.21136],[16.3765,48.21141],[16.37668,48.21147],[16.37687,48.21152],[16.37725,48.21161],[16.37828,48.21186],[16.37896,48.21202],[16.37948,48.21215],[16.37974,48.21222],[16.38,48.2123],[16.38025,48.21238],[16.3805,48.21247],[16.38074,48.21256],[16.38097,48.21266],[16.38119,48.21277],[16.38142,48.21288],[16.38163,48.213],[16.38184,48.21312],[16.38205,48.21325],[16.38274,48.21368],[16.38303,48.21386],[16.38318,48.21395],[16.38348,48.21412],[16.38378,48.21428],[16.38553,48.21524],[16.38684,48.21595],[16.38709,48.21609],[16.38732,48.2162],[16.38755,48.21632],[16.38849,48.21676],[16.38883,48.21692],[16.389,48.21701],[16.38916,48.21709],[16.38932,48.21719],[16.38947,48.21728],[16.38961,48.21737],[16.38975,48.21747],[16.38988,48.21757],[16.39,48.21767],[16.39017,48.21782],[16.39071,48.21833],[16.39083,48.21844],[16.39096,48.21855],[16.39109,48.21865],[16.39122,48.21875],[16.39136,48.21885],[16.3915,48.21894],[16.39165,48.21903],[16.3918,48.21912],[16.39198,48.21921],[16.39215,48.21929],[16.39233,48.21938],[16.39291,48.21963],[16.39441,48.22028],[16.39478,48.22045],[16.39514,48.22062],[16.39549,48.2208],[16.39803,48.22219],[16.39837,48.22237],[16.39856,48.22247],[16.39876,48.22256],[16.39896,48.22265],[16.39972,48.22294],[16.39992,48.22302],[16.40011,48.22311],[16.40029,48.2232],[16.40046,48.22329],[16.40112,48.22365],[16.40381,48.2251],[16.40404,48.22522],[16.40459,48.22548],[16.40495,48.22567],[16.40925,48.22799],[16.40957,48.22817],[16.41011,48.22847],[16.41141,48.22917],[16.41261,48.22982],[16.4129,48.22998],[16.41305,48.23007],[16.41319,48.23015],[16.41331,48.23024],[16.41342,48.23032],[16.41354,48.23041],[16.41364,48.2305],[16.41374,48.23059],[16.41384,48.23069],[16.41392,48.23078],[16.41401,48.23087],[16.41408,48.23097],[16.41438,48.23135],[16.41446,48.23145],[16.41454,48.23154],[16.41463,48.23164],[16.41472,48.23173],[16.41482,48.23183],[16.41493,48.23192],[16.41504,48.23201],[16.41516,48.23209],[16.41528,48.23217],[16.41542,48.23226],[16.41571,48.23242],[16.41648,48.23284],[16.41937,48.2344],[16.41972,48.23459],[16.41989,48.23469],[16.42005,48.2348],[16.42021,48.2349],[16.42031,48.23497],[16.42041,48.23505],[16.42055,48.23516],[16.42069,48.23528],[16.42083,48.23541],[16.42101,48.23559],[16.4214,48.23597],[16.42159,48.23615],[16.42187,48.23641],[16.42217,48.23665],[16.42248,48.23689],[16.42282,48.23711],[16.42316,48.23733],[16.42341,48.23748],[16.4245,48.23809],[16.42655,48.23925],[16.42759,48.23982],[16.43095,48.24165],[16.43133,48.24185],[16.43155,48.24198],[16.43176,48.24211],[16.43197,48.24225],[16.43221,48.24241],[16.43328,48.24316],[16.43423,48.24382],[16.43451,48.24402],[16.43473,48.24419],[16.43495,48.24436],[16.43516,48.24454],[16.43536,48.24472],[16.43559,48.24495],[16.4369,48.24626],[16.43711,48.24646],[16.43722,48.24656],[16.43734,48.24666],[16.43745,48.24675],[16.43758,48.24684],[16.43768,48.24691],[16.43778,48.24698],[16.43789,48.24705],[16.43801,48.24711],[16.43812,48.24717],[16.43827,48.24724],[16.43843,48.24731],[16.43859,48.24737],[16.43891,48.2475],[16.44044,48.24803],[16.4408,48.24816],[16.44097,48.24824],[16.44116,48.24832],[16.44134,48.24841],[16.44152,48.2485],[16.44169,48.2486],[16.44186,48.2487],[16.44201,48.24881],[16.44216,48.24892],[16.44231,48.24904],[16.44244,48.24916],[16.44257,48.24928],[16.44268,48.2494],[16.44278,48.24952],[16.44298,48.24975],[16.44347,48.25035],[16.44459,48.25172],[16.44469,48.25184],[16.44488,48.25205],[16.44508,48.25225],[16.44528,48.25245],[16.4455,48.25265],[16.44601,48.25307],[16.44623,48.25326],[16.44644,48.25346],[16.44664,48.25367],[16.44682,48.25388],[16.447,48.25409],[16.44709,48.25421],[16.44812,48.25558],[16.44821,48.2557],[16.44833,48.25583],[16.44844,48.25597],[16.44886,48.25643],[16.44904,48.25665],[16.44921,48.25686],[16.4493,48.25699],[16.44969,48.25755],[16.45012,48.25816],[16.45022,48.25831],[16.45032,48.25846],[16.45054,48.25882],[16.45063,48.25896],[16.45089,48.25936],[16.45096,48.25948],[16.45103,48.2596],[16.45109,48.25973],[16.45116,48.25988],[16.45123,48.26003],[16.45128,48.26018],[16.45132,48.26033],[16.45134,48.26046],[16.45136,48.26059],[16.45138,48.26072],[16.45143,48.26118],[16.45145,48.26136],[16.45148,48.26154],[16.45155,48.26194],[16.45159,48.26215],[16.45161,48.26237],[16.45171,48.26342],[16.45176,48.26406],[16.45178,48.26432],[16.45178,48.26445],[16.45178,48.26458],[16.45176,48.26473],[16.45174,48.26488],[16.45171,48.26502],[16.45167,48.26517],[16.45162,48.26532],[16.45157,48.26546],[16.4515,48.26561],[16.45143,48.26573],[16.45136,48.26585],[16.45121,48.26608],[16.45003,48.26788],[16.44986,48.26814],[16.44977,48.26827],[16.44963,48.26844],[16.44952,48.26856],[16.44941,48.26868],[16.4491,48.26902],[16.44901,48.26913],[16.44891,48.26924],[16.44883,48.26935],[16.44876,48.26944],[16.4487,48.26954],[16.44863,48.26965],[16.44856,48.26977],[16.4485,48.26989],[16.44797,48.27104],[16.44724,48.27262],[16.44712,48.27288],[16.44702,48.27313],[16.44693,48.27338],[16.44686,48.27364],[16.44683,48.27376],[16.44681,48.27388],[16.44679,48.274],[16.44677,48.27413],[16.44676,48.27425],[16.44676,48.27437],[16.44677,48.2745],[16.44678,48.27463],[16.44681,48.27476],[16.44684,48.27489],[16.44689,48.27502],[16.44694,48.27514],[16.447,48.27527],[16.44707,48.27539],[16.44715,48.27551],[16.44724,48.27563],[16.44734,48.27574],[16.44744,48.27585],[16.44755,48.27596],[16.44767,48.27606],[16.44776,48.27613],[16.4478,48.27616],[16.44794,48.27626],[16.44808,48.27635],[16.44822,48.27644],[16.44838,48.27652],[16.44854,48.2766],[16.4487,48.27667],[16.44887,48.27673],[16.44904,48.27679],[16.4492,48.27684],[16.44937,48.27689],[16.44972,48.27698],[16.45075,48.27723],[16.45102,48.27729],[16.4521,48.27753]]}},{"type":"Feature","properties":{"lineId":"U2","name":"U2","longName":"Seestadt - Karlsplatz","mode":"underground","color":"#A862A4","stops":[{"name":"Seestadt","lon":16.50826,"lat":48.22582},{"name":"Aspern Nord","lon":16.50452,"lat":48.23456},{"name":"Hausfeldstraße","lon":16.48568,"lat":48.23344},{"name":"Lina-Loos-Platz","lon":16.47846,"lat":48.2283},{"name":"Aspernstraße","lon":16.47486,"lat":48.2226},{"name":"Donauspital","lon":16.46651,"lat":48.21947},{"name":"Hardeggasse","lon":16.45776,"lat":48.22094},{"name":"Stadlau","lon":16.44937,"lat":48.21974},{"name":"Donaustadtbrücke","lon":16.44006,"lat":48.2118},{"name":"Donaumarina","lon":16.43121,"lat":48.20632},{"name":"Stadion","lon":16.42038,"lat":48.21072},{"name":"Krieau","lon":16.41377,"lat":48.21472},{"name":"Messe-Prater","lon":16.40503,"lat":48.21782},{"name":"Praterstern","lon":16.39338,"lat":48.21869},{"name":"Taborstraße","lon":16.38114,"lat":48.21931},{"name":"Schottenring","lon":16.37199,"lat":48.21747},{"name":"Schottentor","lon":16.36286,"lat":48.21507},{"name":"Rathaus","lon":16.3555,"lat":48.21075},{"name":"Volkstheater","lon":16.35758,"lat":48.20537},{"name":"Museumsquartier","lon":16.36117,"lat":48.20269},{"name":"Karlsplatz","lon":16.3692,"lat":48.20095}],"lengthKm":16.9},"geometry":{"type":"LineString","coordinates":[[16.5083,48.22581],[16.51049,48.23076],[16.51059,48.231],[16.51063,48.23113],[16.51067,48.23125],[16.51071,48.23138],[16.51073,48.2315],[16.51075,48.23163],[16.51075,48.23176],[16.51075,48.23189],[16.51074,48.23203],[16.51072,48.23216],[16.51069,48.23229],[16.51065,48.23242],[16.5106,48.23255],[16.51054,48.23267],[16.51047,48.2328],[16.51039,48.23292],[16.51031,48.23304],[16.51022,48.23316],[16.51011,48.23327],[16.51005,48.23334],[16.51001,48.23338],[16.50989,48.23349],[16.50976,48.23359],[16.50963,48.23369],[16.5095,48.23378],[16.50936,48.23386],[16.50922,48.23395],[16.50907,48.23402],[16.50892,48.2341],[16.50876,48.23417],[16.50858,48.23424],[16.5084,48.2343],[16.50821,48.23437],[16.50801,48.23442],[16.50782,48.23447],[16.50762,48.23451],[16.50742,48.23455],[16.50721,48.23458],[16.50701,48.23461],[16.5068,48.23463],[16.50659,48.23464],[16.50638,48.23465],[16.50617,48.23465],[16.50596,48.23464],[16.50554,48.23462],[16.50452,48.23457],[16.49105,48.23382],[16.49074,48.23379],[16.49043,48.23377],[16.48963,48.23369],[16.48913,48.23366],[16.48568,48.23346],[16.48391,48.23336],[16.48353,48.23334],[16.48334,48.23332],[16.48315,48.2333],[16.48297,48.23327],[16.48278,48.23324],[16.48258,48.2332],[16.48238,48.23315],[16.48218,48.23309],[16.48199,48.23303],[16.4819,48.233],[16.4818,48.23296],[16.48161,48.23289],[16.48143,48.23281],[16.48126,48.23273],[16.4811,48.23264],[16.48094,48.23254],[16.48078,48.23244],[16.48064,48.23233],[16.4805,48.23222],[16.48037,48.23211],[16.48025,48.23199],[16.48014,48.23187],[16.48004,48.23174],[16.47995,48.23163],[16.47988,48.23151],[16.47981,48.2314],[16.47974,48.23128],[16.47963,48.23103],[16.47843,48.22831],[16.47798,48.22727],[16.47784,48.22696],[16.47765,48.22647],[16.47757,48.22631],[16.47751,48.22619],[16.47744,48.22606],[16.47729,48.22582],[16.47707,48.22548],[16.47689,48.22522],[16.47683,48.22515],[16.47659,48.22482],[16.47484,48.22261],[16.47331,48.22067],[16.47321,48.22056],[16.47312,48.22045],[16.47301,48.22034],[16.47291,48.22024],[16.47279,48.22013],[16.47267,48.22003],[16.47254,48.21994],[16.4724,48.21985],[16.47226,48.21977],[16.47214,48.2197],[16.47196,48.21961],[16.4718,48.21954],[16.47164,48.21947],[16.47147,48.21941],[16.4713,48.21936],[16.47113,48.2193],[16.47095,48.21926],[16.47077,48.21922],[16.47059,48.21919],[16.4704,48.21916],[16.47021,48.21914],[16.46998,48.21912],[16.46984,48.21911],[16.46965,48.2191],[16.46945,48.21911],[16.46926,48.21911],[16.46907,48.21913],[16.46888,48.21914],[16.46869,48.21917],[16.46832,48.21922],[16.46651,48.21949],[16.46561,48.21962],[16.46519,48.21968],[16.46272,48.21999],[16.46248,48.22002],[16.46225,48.22005],[16.46201,48.2201],[16.46178,48.22014],[16.46155,48.22019],[16.46024,48.22052],[16.45975,48.22064],[16.45926,48.22073],[16.45877,48.22082],[16.45843,48.22087],[16.45827,48.2209],[16.45777,48.22096],[16.45739,48.22099],[16.45702,48.22102],[16.45664,48.22105],[16.45642,48.22106],[16.4562,48.22106],[16.45589,48.22107],[16.45554,48.22107],[16.45519,48.22107],[16.45484,48.22105],[16.45461,48.22104],[16.45439,48.22103],[16.45405,48.221],[16.45303,48.22091],[16.4528,48.22089],[16.45258,48.22086],[16.45235,48.22083],[16.45213,48.22079],[16.45195,48.22075],[16.45176,48.22071],[16.45159,48.22066],[16.45141,48.22061],[16.45123,48.22056],[16.45104,48.22049],[16.45085,48.22041],[16.45066,48.22034],[16.44935,48.21976],[16.44873,48.21949],[16.4484,48.21934],[16.44823,48.21926],[16.44807,48.21917],[16.44792,48.21909],[16.44777,48.219],[16.44763,48.2189],[16.44749,48.21881],[16.44737,48.21871],[16.44725,48.2186],[16.44714,48.2185],[16.44703,48.21839],[16.44693,48.21827],[16.44683,48.21814],[16.44674,48.21801],[16.44666,48.21788],[16.44659,48.21774],[16.44653,48.2176],[16.44647,48.21746],[16.44643,48.21732],[16.44638,48.21718],[16.44627,48.21675],[16.44623,48.2166],[16.44619,48.21646],[16.44613,48.21632],[16.44607,48.21618],[16.446,48.21604],[16.44592,48.21591],[16.44583,48.21578],[16.44573,48.21565],[16.44565,48.21555],[16.44556,48.21545],[16.44544,48.21534],[16.44532,48.21523],[16.4452,48.21513],[16.44507,48.21502],[16.44493,48.21492],[16.44339,48.21386],[16.44315,48.2137],[16.44289,48.21353],[16.44009,48.21177],[16.43263,48.20708],[16.43235,48.20691],[16.43206,48.20674],[16.43187,48.20663],[16.43168,48.20652],[16.43148,48.20642],[16.43123,48.2063],[16.43092,48.20615],[16.43077,48.20608],[16.43063,48.20602],[16.43047,48.20595],[16.43032,48.2059],[16.43016,48.20585],[16.42998,48.20579],[16.42979,48.20575],[16.42961,48.20571],[16.42941,48.20567],[16.42922,48.20564],[16.42903,48.20562],[16.42883,48.20561],[16.42863,48.2056],[16.42844,48.20559],[16.42824,48.2056],[16.42804,48.20561],[16.42785,48.20562],[16.42765,48.20565],[16.42746,48.20568],[16.42727,48.20571],[16.42708,48.20575],[16.42689,48.2058],[16.42671,48.20585],[16.42654,48.20591],[16.42636,48.20598],[16.4262,48.20605],[16.42604,48.20612],[16.42589,48.2062],[16.42574,48.20628],[16.4256,48.20637],[16.42546,48.20646],[16.42533,48.20655],[16.4252,48.20665],[16.42495,48.20684],[16.42471,48.20704],[16.42441,48.2073],[16.42414,48.20754],[16.42392,48.20775],[16.42245,48.20917],[16.42228,48.20933],[16.42209,48.2095],[16.42189,48.20966],[16.42169,48.20982],[16.42149,48.20997],[16.4204,48.21074],[16.41792,48.2125],[16.41768,48.21267],[16.41746,48.21281],[16.41725,48.21293],[16.417,48.21308],[16.41673,48.21323],[16.4138,48.21473],[16.41254,48.21538],[16.41233,48.21549],[16.41214,48.21561],[16.412,48.21569],[16.41186,48.21578],[16.41165,48.21592],[16.41084,48.21653],[16.41067,48.21665],[16.41052,48.21675],[16.41036,48.21685],[16.4102,48.21694],[16.41003,48.21703],[16.40985,48.21711],[16.40967,48.21719],[16.40949,48.21726],[16.4093,48.21733],[16.40908,48.21741],[16.40887,48.21747],[16.40865,48.21753],[16.40842,48.21758],[16.40819,48.21763],[16.40796,48.21767],[16.40773,48.2177],[16.4075,48.21774],[16.40727,48.21776],[16.40699,48.21779],[16.4067,48.21781],[16.40642,48.21783],[16.4061,48.21784],[16.40504,48.21784],[16.40151,48.21785],[16.39941,48.21789],[16.39908,48.2179],[16.39839,48.21793],[16.39771,48.21798],[16.39703,48.21806],[16.39636,48.21815],[16.39569,48.21826],[16.39527,48.21834],[16.3934,48.21871],[16.39245,48.21889],[16.39203,48.21897],[16.3915,48.21906],[16.39096,48.21913],[16.39041,48.21919],[16.38986,48.21923],[16.38948,48.21925],[16.38909,48.21926],[16.38871,48.21928],[16.38847,48.2193],[16.38804,48.21934],[16.38782,48.21936],[16.38749,48.2194],[16.38713,48.21944],[16.38618,48.21959],[16.38592,48.21963],[16.38566,48.21966],[16.38533,48.21969],[16.385,48.21972],[16.38467,48.21973],[16.38435,48.21973],[16.38401,48.21973],[16.38368,48.21971],[16.38336,48.21969],[16.38308,48.21966],[16.38275,48.21962],[16.38249,48.21958],[16.38223,48.21954],[16.38113,48.21933],[16.3802,48.21916],[16.37981,48.21908],[16.37383,48.21781],[16.37347,48.21774],[16.37311,48.21767],[16.37199,48.21748],[16.37126,48.21736],[16.37091,48.21731],[16.37073,48.21728],[16.37055,48.21726],[16.37044,48.21725],[16.37021,48.21724],[16.37003,48.21724],[16.36985,48.21724],[16.36967,48.21724],[16.36904,48.21726],[16.36877,48.21727],[16.3685,48.21727],[16.36836,48.21727],[16.36823,48.21726],[16.3681,48.21725],[16.36796,48.21723],[16.36782,48.21721],[16.36769,48.21719],[16.36755,48.21716],[16.36742,48.21713],[16.36729,48.2171],[16.36716,48.21706],[16.36704,48.21702],[16.36693,48.21697],[16.3667,48.21688],[16.36648,48.21678],[16.36591,48.21649],[16.36569,48.21639],[16.36285,48.21508],[16.36237,48.21486],[16.36212,48.21474],[16.36199,48.21467],[16.36163,48.21447],[16.36148,48.2144],[16.36134,48.21433],[16.36126,48.21429],[16.3611,48.21423],[16.36102,48.2142],[16.36086,48.21415],[16.3607,48.21411],[16.36061,48.2141],[16.36047,48.21408],[16.3604,48.21407],[16.36026,48.21406],[16.36019,48.21406],[16.36005,48.21406],[16.35994,48.21406],[16.35973,48.21408],[16.35951,48.21411],[16.35931,48.21414],[16.35911,48.21419],[16.35891,48.21425],[16.35843,48.21438],[16.35827,48.21443],[16.3581,48.21447],[16.35793,48.2145],[16.35784,48.21452],[16.35766,48.21454],[16.35755,48.21455],[16.35737,48.21456],[16.35725,48.21455],[16.35719,48.21455],[16.35706,48.21454],[16.357,48.21453],[16.35688,48.21451],[16.35681,48.21449],[16.35669,48.21446],[16.35657,48.21441],[16.35645,48.21436],[16.35635,48.2143],[16.35625,48.21424],[16.35616,48.21417],[16.35608,48.2141],[16.35605,48.21406],[16.35598,48.21398],[16.35593,48.21389],[16.35591,48.21385],[16.35587,48.21376],[16.35585,48.21371],[16.35582,48.21362],[16.35579,48.21349],[16.35571,48.21312],[16.35569,48.21304],[16.35567,48.21287],[16.35566,48.21279],[16.35566,48.2127],[16.35566,48.2126],[16.35566,48.21251],[16.35567,48.21244],[16.35571,48.2122],[16.35572,48.21211],[16.35572,48.21203],[16.35573,48.21195],[16.35573,48.21188],[16.35572,48.2118],[16.35572,48.2117],[16.3557,48.2116],[16.35568,48.21149],[16.35552,48.21074],[16.35532,48.20986],[16.35522,48.20944],[16.35511,48.20898],[16.35509,48.20886],[16.35508,48.20879],[16.35507,48.20873],[16.35507,48.20865],[16.35507,48.20858],[16.35507,48.2085],[16.35508,48.20842],[16.3551,48.20834],[16.35514,48.20822],[16.35526,48.20787],[16.35532,48.20768],[16.35536,48.20755],[16.35542,48.20743],[16.35545,48.20737],[16.35549,48.20731],[16.35557,48.20719],[16.35566,48.20706],[16.35576,48.20694],[16.35588,48.20679],[16.356,48.20666],[16.3561,48.20655],[16.35617,48.20649],[16.35631,48.20637],[16.35647,48.20624],[16.35664,48.20611],[16.35761,48.20538],[16.36073,48.20303],[16.36101,48.20283],[16.3612,48.2027],[16.36129,48.20264],[16.36144,48.20255],[16.36159,48.20247],[16.36175,48.20238],[16.36362,48.20141],[16.36376,48.20134],[16.3639,48.20128],[16.36397,48.20125],[16.36409,48.2012],[16.36423,48.20116],[16.36432,48.20114],[16.36447,48.2011],[16.36506,48.20098],[16.36537,48.20093],[16.36558,48.2009],[16.36569,48.20089],[16.3658,48.20088],[16.36591,48.20087],[16.36602,48.20087],[16.36613,48.20087],[16.36624,48.20088],[16.36635,48.20089],[16.36648,48.2009],[16.36674,48.20093],[16.36739,48.20103],[16.36761,48.20106],[16.36783,48.20108],[16.36804,48.20109],[16.36814,48.20109],[16.36835,48.20108],[16.36849,48.20107],[16.36863,48.20106],[16.36877,48.20104],[16.36891,48.20102],[16.36903,48.201],[16.36921,48.20097]]}},{"type":"Feature","properties":{"lineId":"U3","name":"U3","longName":"Ottakring - Simmering","mode":"underground","color":"#EF7C00","stops":[{"name":"Simmering","lon":16.42077,"lat":48.16968},{"name":"Enkplatz","lon":16.41487,"lat":48.17481},{"name":"Zippererstraße","lon":16.41218,"lat":48.1802},{"name":"Gasometer","lon":16.41732,"lat":48.18488},{"name":"Erdberg","lon":16.41416,"lat":48.19147},{"name":"Schlachthausgasse","lon":16.40665,"lat":48.19449},{"name":"Kardinal-Nagl-Platz","lon":16.40008,"lat":48.19751},{"name":"Rochusgasse","lon":16.39198,"lat":48.20228},{"name":"Mitte-Landstraße","lon":16.38569,"lat":48.20579},{"name":"Stubentor","lon":16.37929,"lat":48.20701},{"name":"Stephansplatz","lon":16.3715,"lat":48.20801},{"name":"Herrengasse","lon":16.36509,"lat":48.2094},{"name":"Volkstheater","lon":16.35908,"lat":48.20564},{"name":"Neubaugasse","lon":16.35247,"lat":48.19924},{"name":"Zieglergasse","lon":16.34628,"lat":48.19709},{"name":"Westbahnhof","lon":16.33842,"lat":48.19599},{"name":"Schweglerstraße","lon":16.32861,"lat":48.1979},{"name":"Johnstraße","lon":16.32024,"lat":48.19767},{"name":"Hütteldorfer Straße","lon":16.31147,"lat":48.19983},{"name":"Kendlerstraße","lon":16.30921,"lat":48.20457},{"name":"Ottakring","lon":16.31155,"lat":48.21146}],"lengthKm":13.4},"geometry":{"type":"LineString","coordinates":[[16.4208,48.16969],[16.42026,48.17008],[16.42007,48.17021],[16.41957,48.17053],[16.41944,48.17063],[16.41931,48.17072],[16.41918,48.17082],[16.41906,48.17092],[16.41894,48.17103],[16.41883,48.17113],[16.41872,48.17124],[16.41796,48.17202],[16.41782,48.17216],[16.4177,48.1723],[16.41758,48.17244],[16.41747,48.17259],[16.41724,48.1729],[16.41713,48.17305],[16.41696,48.17324],[16.41679,48.17343],[16.41659,48.17362],[16.4164,48.1738],[16.41618,48.17398],[16.41596,48.17415],[16.41573,48.17431],[16.41555,48.17443],[16.41491,48.17483],[16.41297,48.17606],[16.41283,48.17615],[16.4127,48.17624],[16.41256,48.17634],[16.41244,48.17644],[16.41231,48.17655],[16.41219,48.17666],[16.41208,48.17678],[16.41197,48.17691],[16.41188,48.17703],[16.41179,48.17716],[16.41172,48.17729],[16.41165,48.17743],[16.4116,48.17756],[16.41155,48.1777],[16.41151,48.17784],[16.41149,48.17798],[16.41147,48.17812],[16.41146,48.17826],[16.41147,48.1784],[16.41148,48.17854],[16.4115,48.17868],[16.41154,48.17882],[16.41158,48.17896],[16.41163,48.17908],[16.41169,48.1792],[16.41175,48.17933],[16.41183,48.17948],[16.41223,48.18018],[16.41251,48.18067],[16.41259,48.1808],[16.41269,48.18096],[16.41276,48.18107],[16.41284,48.18118],[16.41292,48.18129],[16.41301,48.18139],[16.4131,48.1815],[16.41319,48.1816],[16.41327,48.18167],[16.41335,48.18175],[16.41346,48.18184],[16.41358,48.18193],[16.4137,48.18202],[16.41395,48.1822],[16.41423,48.18238],[16.4145,48.18254],[16.41526,48.18299],[16.41553,48.18315],[16.41567,48.18323],[16.41582,48.18334],[16.41598,48.18345],[16.41612,48.18357],[16.41626,48.18369],[16.41639,48.18381],[16.41651,48.18394],[16.41661,48.18405],[16.4167,48.18415],[16.41729,48.1849],[16.41791,48.18568],[16.41808,48.1859],[16.41817,48.18602],[16.41825,48.18616],[16.41835,48.18632],[16.4184,48.18641],[16.41846,48.18654],[16.4185,48.18667],[16.41855,48.1868],[16.41858,48.18693],[16.4186,48.18706],[16.41862,48.1872],[16.41863,48.18731],[16.41863,48.18742],[16.41862,48.18752],[16.41861,48.18763],[16.4186,48.18774],[16.41858,48.18784],[16.41855,48.18793],[16.41851,48.18808],[16.41845,48.18822],[16.41838,48.18836],[16.41831,48.1885],[16.41822,48.18864],[16.41813,48.18877],[16.41802,48.1889],[16.41791,48.18903],[16.41779,48.18915],[16.41766,48.18927],[16.41752,48.18939],[16.41738,48.18949],[16.41724,48.1896],[16.41709,48.18969],[16.41688,48.18982],[16.41499,48.19097],[16.41417,48.19148],[16.41245,48.19257],[16.41217,48.19273],[16.41204,48.19281],[16.41189,48.19289],[16.41175,48.19296],[16.4116,48.19304],[16.41147,48.19309],[16.41133,48.19315],[16.41122,48.19319],[16.41106,48.19324],[16.41091,48.19329],[16.41074,48.19333],[16.41057,48.19337],[16.4104,48.19341],[16.41022,48.19345],[16.40987,48.19351],[16.40932,48.1936],[16.40914,48.19364],[16.40895,48.19368],[16.40877,48.19372],[16.40859,48.19376],[16.4084,48.19382],[16.40822,48.19387],[16.40805,48.19393],[16.40789,48.194],[16.40756,48.19413],[16.40667,48.19451],[16.40578,48.19489],[16.40551,48.19501],[16.40506,48.19521],[16.40432,48.19554],[16.40193,48.19657],[16.40158,48.19673],[16.40123,48.19689],[16.40094,48.19704],[16.40065,48.19719],[16.40009,48.19752],[16.39848,48.19845],[16.39787,48.19881],[16.39466,48.20074],[16.3943,48.20097],[16.39416,48.20106],[16.39377,48.20132],[16.39358,48.20143],[16.39344,48.20152],[16.39328,48.20161],[16.39309,48.20172],[16.39199,48.2023],[16.391,48.20283],[16.38995,48.20335],[16.38979,48.20344],[16.38964,48.20352],[16.38951,48.2036],[16.38938,48.20368],[16.38925,48.20377],[16.38914,48.20385],[16.389,48.20396],[16.38884,48.2041],[16.38846,48.20442],[16.38829,48.20456],[16.38812,48.20469],[16.38793,48.20482],[16.38775,48.20495],[16.38765,48.20501],[16.3875,48.2051],[16.38732,48.2052],[16.3872,48.20526],[16.38707,48.20532],[16.38682,48.20542],[16.38663,48.2055],[16.38643,48.20557],[16.3857,48.20581],[16.38443,48.20622],[16.3843,48.20626],[16.38396,48.20636],[16.3836,48.20645],[16.38324,48.20653],[16.38288,48.2066],[16.38251,48.20666],[16.38214,48.20672],[16.38177,48.20676],[16.38139,48.20679],[16.38084,48.20682],[16.38057,48.20684],[16.38031,48.20686],[16.37991,48.2069],[16.37928,48.20698],[16.37679,48.20729],[16.37632,48.20734],[16.37584,48.20738],[16.37537,48.20741],[16.37458,48.20744],[16.37434,48.20745],[16.3741,48.20747],[16.37385,48.2075],[16.37357,48.20753],[16.37331,48.20757],[16.3732,48.20759],[16.37306,48.20762],[16.37281,48.20767],[16.37256,48.20773],[16.37233,48.20779],[16.3715,48.20802],[16.37111,48.20814],[16.37079,48.20823],[16.37065,48.20828],[16.37044,48.20836],[16.37026,48.20843],[16.37013,48.2085],[16.36999,48.20856],[16.36987,48.20863],[16.36938,48.20891],[16.3692,48.20901],[16.36903,48.2091],[16.3689,48.20916],[16.36878,48.20922],[16.36865,48.20927],[16.36851,48.20932],[16.36836,48.20937],[16.36821,48.20942],[16.36806,48.20946],[16.36791,48.2095],[16.36775,48.20953],[16.36759,48.20955],[16.36743,48.20958],[16.36727,48.20959],[16.3671,48.2096],[16.36694,48.20961],[16.36678,48.20961],[16.36661,48.20961],[16.36646,48.2096],[16.36631,48.20959],[16.36601,48.20956],[16.36571,48.20952],[16.36508,48.20942],[16.36438,48.20931],[16.36402,48.20926],[16.36385,48.20922],[16.36367,48.20919],[16.36349,48.20915],[16.36332,48.2091],[16.36314,48.20905],[16.36297,48.209],[16.36281,48.20894],[16.36265,48.20887],[16.36249,48.2088],[16.36234,48.20872],[16.36219,48.20864],[16.36205,48.20856],[16.36191,48.20847],[16.36178,48.20838],[16.36166,48.20828],[16.36155,48.20818],[16.36144,48.20808],[16.36134,48.20797],[16.36125,48.20787],[16.36116,48.20776],[16.36107,48.20765],[16.36074,48.20722],[16.36062,48.20708],[16.3605,48.20694],[16.36041,48.20684],[16.36025,48.20668],[16.36007,48.20651],[16.35993,48.20639],[16.35906,48.20564],[16.35856,48.20522],[16.35831,48.20501],[16.35805,48.20481],[16.35757,48.20442],[16.35706,48.20405],[16.35682,48.20386],[16.35671,48.20376],[16.3566,48.20366],[16.3565,48.20356],[16.3564,48.20345],[16.35631,48.20334],[16.35623,48.20323],[16.35615,48.20312],[16.35609,48.20301],[16.35603,48.20289],[16.35598,48.20277],[16.35593,48.20265],[16.35589,48.20253],[16.35586,48.20241],[16.35583,48.20228],[16.35572,48.20179],[16.35569,48.20167],[16.35566,48.20155],[16.35562,48.20143],[16.35558,48.20131],[16.35553,48.20119],[16.35546,48.20107],[16.35539,48.20095],[16.35532,48.20083],[16.35523,48.20071],[16.35513,48.2006],[16.35503,48.20049],[16.35492,48.20039],[16.3548,48.20028],[16.35468,48.20018],[16.35455,48.20009],[16.35441,48.2],[16.35426,48.19991],[16.35411,48.19983],[16.35396,48.19976],[16.35381,48.19969],[16.35365,48.19963],[16.35349,48.19956],[16.35337,48.19952],[16.35297,48.19937],[16.35251,48.19921],[16.35179,48.19894],[16.3514,48.19879],[16.35101,48.19864],[16.35055,48.19845],[16.34982,48.19817],[16.34909,48.1979],[16.34876,48.19779],[16.34844,48.19768],[16.34794,48.19752],[16.34742,48.19738],[16.3469,48.19725],[16.34627,48.19711],[16.34556,48.19696],[16.34521,48.19689],[16.34486,48.19683],[16.34424,48.19673],[16.3436,48.19663],[16.34262,48.19646],[16.34141,48.19625],[16.34111,48.19621],[16.34082,48.19617],[16.34064,48.19615],[16.34046,48.19613],[16.3402,48.1961],[16.33993,48.19608],[16.33973,48.19607],[16.33843,48.19601],[16.33764,48.19597],[16.33729,48.19596],[16.33701,48.19596],[16.33682,48.19596],[16.33664,48.19596],[16.33645,48.19597],[16.33627,48.19598],[16.33609,48.196],[16.3359,48.19602],[16.33572,48.19604],[16.33554,48.19607],[16.33536,48.19611],[16.33519,48.19615],[16.33502,48.1962],[16.33485,48.19625],[16.33468,48.19631],[16.33452,48.19637],[16.33436,48.19644],[16.33421,48.19651],[16.33407,48.19658],[16.33392,48.19666],[16.33378,48.19674],[16.33365,48.19683],[16.33311,48.19716],[16.33283,48.19732],[16.33269,48.1974],[16.33254,48.19748],[16.33239,48.19755],[16.33223,48.19762],[16.33206,48.19768],[16.33189,48.19774],[16.33183,48.19776],[16.33171,48.19779],[16.33153,48.19784],[16.33135,48.19788],[16.33116,48.19792],[16.33097,48.19795],[16.33078,48.19798],[16.33059,48.19799],[16.3304,48.19801],[16.33021,48.19801],[16.33002,48.19801],[16.32984,48.19801],[16.32965,48.198],[16.32947,48.19799],[16.3291,48.19796],[16.32862,48.19791],[16.32775,48.19783],[16.32755,48.19781],[16.32734,48.19778],[16.32714,48.19775],[16.32693,48.19772],[16.32674,48.19768],[16.32599,48.19752],[16.3258,48.19748],[16.32562,48.19745],[16.3254,48.19741],[16.32518,48.19738],[16.32496,48.19736],[16.32473,48.19735],[16.32451,48.19734],[16.32429,48.19734],[16.32407,48.19734],[16.32384,48.19735],[16.32365,48.19736],[16.32327,48.1974],[16.32128,48.19761],[16.32101,48.19763],[16.32024,48.19769],[16.31947,48.19774],[16.31926,48.19775],[16.31836,48.19779],[16.31775,48.19783],[16.31715,48.19787],[16.31671,48.19791],[16.31607,48.19798],[16.31543,48.19807],[16.31524,48.1981],[16.31485,48.19816],[16.31465,48.1982],[16.31446,48.19824],[16.31427,48.19828],[16.31409,48.19833],[16.31391,48.19839],[16.31373,48.19845],[16.31356,48.19851],[16.31339,48.19858],[16.31322,48.19866],[16.31306,48.19874],[16.31291,48.19882],[16.31275,48.19892],[16.31259,48.19902],[16.31245,48.19912],[16.3123,48.19922],[16.31202,48.19943],[16.31149,48.19985],[16.30996,48.20104],[16.30985,48.20113],[16.30973,48.20123],[16.30962,48.20133],[16.30951,48.20143],[16.30941,48.20153],[16.30932,48.20164],[16.30923,48.20176],[16.30915,48.20188],[16.30908,48.202],[16.30901,48.20212],[16.30896,48.20224],[16.30891,48.20236],[16.30887,48.20249],[16.30884,48.20262],[16.30882,48.20275],[16.30881,48.20288],[16.30881,48.203],[16.30882,48.20313],[16.30884,48.20326],[16.30886,48.20338],[16.30889,48.2035],[16.30892,48.20362],[16.309,48.20386],[16.30924,48.20457],[16.31072,48.20896],[16.31079,48.2092],[16.31089,48.20955],[16.31096,48.20979],[16.31153,48.21147]]}},{"type":"Feature","properties":{"lineId":"U4","name":"U4","longName":"Hütteldorf - Heiligenstadt","mode":"underground","color":"#319F49","stops":[{"name":"Hütteldorf","lon":16.2606,"lat":48.19698},{"name":"Ober St. Veit","lon":16.27614,"lat":48.19221},{"name":"Unter St. Veit","lon":16.28598,"lat":48.19109},{"name":"Braunschweiggasse","lon":16.29581,"lat":48.18937},{"name":"Hietzing","lon":16.30481,"lat":48.18752},{"name":"Schönbrunn","lon":16.31893,"lat":48.18601},{"name":"Meidling Hauptstraße","lon":16.32793,"lat":48.1836},{"name":"Längenfeldgasse","lon":16.33502,"lat":48.18483},{"name":"Margaretengürtel","lon":16.34303,"lat":48.18845},{"name":"Pilgramgasse","lon":16.35433,"lat":48.19214},{"name":"Kettenbrückengasse","lon":16.35811,"lat":48.1966},{"name":"Karlsplatz","lon":16.36939,"lat":48.20039},{"name":"Stadtpark","lon":16.37971,"lat":48.20283},{"name":"Mitte-Landstraße","lon":16.38489,"lat":48.20689},{"name":"Schwedenplatz","lon":16.37813,"lat":48.21186},{"name":"Schottenring","lon":16.37202,"lat":48.21665},{"name":"Roßauer Lände","lon":16.36762,"lat":48.22234},{"name":"Friedensbrücke","lon":16.36407,"lat":48.22781},{"name":"Spittelau","lon":16.3586,"lat":48.23488},{"name":"Heiligenstadt","lon":16.36597,"lat":48.24863}],"lengthKm":16.4},"geometry":{"type":"LineString","coordinates":[[16.26059,48.19696],[16.26216,48.19657],[16.26241,48.1965],[16.26259,48.19644],[16.26267,48.19641],[16.26282,48.19634],[16.26296,48.19627],[16.26305,48.19622],[16.26313,48.19617],[16.26321,48.19612],[16.26328,48.19606],[16.26335,48.19601],[16.26341,48.19595],[16.26347,48.19589],[16.26353,48.19582],[16.26359,48.19576],[16.26362,48.19571],[16.2637,48.1956],[16.26443,48.19449],[16.2645,48.19439],[16.26455,48.19433],[16.2646,48.19428],[16.26468,48.1942],[16.26478,48.19412],[16.26484,48.19407],[16.26491,48.19403],[16.26498,48.19399],[16.26505,48.19394],[16.26521,48.19387],[16.26536,48.19381],[16.26552,48.19375],[16.26578,48.19368],[16.26704,48.19336],[16.26746,48.19326],[16.26788,48.19316],[16.26839,48.19306],[16.2689,48.19298],[16.26941,48.19291],[16.2698,48.19286],[16.27363,48.1925],[16.27406,48.19245],[16.27461,48.19238],[16.27483,48.19235],[16.27505,48.19233],[16.27614,48.19223],[16.27701,48.19215],[16.27735,48.19213],[16.27784,48.1921],[16.27817,48.19207],[16.27839,48.19205],[16.2797,48.19193],[16.28023,48.19188],[16.28129,48.19177],[16.28195,48.19169],[16.28309,48.19156],[16.2834,48.19152],[16.28371,48.19148],[16.28402,48.19143],[16.28496,48.19126],[16.28527,48.19121],[16.28599,48.19111],[16.28703,48.19096],[16.28731,48.19092],[16.28788,48.19086],[16.28803,48.19084],[16.28831,48.1908],[16.28963,48.19061],[16.29,48.19055],[16.29037,48.19049],[16.29247,48.19011],[16.29277,48.19006],[16.29306,48.19],[16.29398,48.18981],[16.29425,48.18974],[16.29489,48.18959],[16.29515,48.18953],[16.29581,48.18939],[16.29668,48.18921],[16.29698,48.18915],[16.29787,48.189],[16.29823,48.18893],[16.29951,48.18866],[16.29969,48.18862],[16.29986,48.18858],[16.30024,48.18847],[16.30045,48.18842],[16.30067,48.18837],[16.30223,48.18804],[16.30246,48.188],[16.30281,48.18795],[16.30301,48.18791],[16.30315,48.18788],[16.30329,48.18785],[16.30384,48.1877],[16.30397,48.18767],[16.3041,48.18764],[16.30424,48.18762],[16.30437,48.1876],[16.30451,48.18758],[16.30465,48.18756],[16.30481,48.18755],[16.305,48.18753],[16.30513,48.18753],[16.30543,48.18752],[16.306,48.18751],[16.30621,48.18751],[16.30643,48.18751],[16.30691,48.18752],[16.30733,48.18752],[16.30793,48.18751],[16.30845,48.1875],[16.30897,48.18749],[16.31133,48.1874],[16.31247,48.18737],[16.31264,48.18736],[16.31282,48.18735],[16.313,48.18733],[16.31317,48.18731],[16.31335,48.18728],[16.31352,48.18725],[16.31449,48.18708],[16.31618,48.18677],[16.31662,48.18669],[16.31684,48.18664],[16.31706,48.18658],[16.31727,48.18652],[16.31809,48.18627],[16.31828,48.18621],[16.31895,48.18603],[16.32012,48.18571],[16.32062,48.18557],[16.32586,48.18396],[16.3262,48.18386],[16.32637,48.18381],[16.32654,48.18376],[16.32671,48.18372],[16.32689,48.18368],[16.32707,48.18365],[16.32725,48.18362],[16.32743,48.1836],[16.32762,48.18358],[16.3278,48.18357],[16.32794,48.18356],[16.32803,48.18356],[16.32832,48.18356],[16.32878,48.18356],[16.32907,48.18356],[16.32935,48.18357],[16.33139,48.18365],[16.33163,48.18366],[16.33178,48.18367],[16.33194,48.18369],[16.3321,48.18371],[16.33226,48.18374],[16.33241,48.18377],[16.33267,48.18382],[16.33291,48.18389],[16.33315,48.18395],[16.33338,48.18403],[16.33354,48.18408],[16.3337,48.18414],[16.33384,48.1842],[16.33397,48.18425],[16.33409,48.18431],[16.33421,48.18437],[16.33433,48.18443],[16.33443,48.18449],[16.33472,48.18466],[16.335,48.18485],[16.33521,48.18499],[16.33542,48.18514],[16.33562,48.18529],[16.3366,48.18606],[16.33675,48.18617],[16.33712,48.18644],[16.33733,48.18659],[16.33747,48.1867],[16.33789,48.18706],[16.33809,48.18722],[16.33821,48.18732],[16.33833,48.18741],[16.33846,48.1875],[16.3386,48.18758],[16.33874,48.18767],[16.33888,48.18774],[16.33903,48.18782],[16.33918,48.18788],[16.33934,48.18795],[16.3395,48.18801],[16.33967,48.18806],[16.33984,48.18811],[16.34001,48.18815],[16.34018,48.18819],[16.34035,48.18822],[16.34053,48.18825],[16.3407,48.18828],[16.34088,48.1883],[16.34106,48.18832],[16.34141,48.18836],[16.34187,48.1884],[16.34226,48.18842],[16.34302,48.18847],[16.34452,48.18857],[16.34481,48.18859],[16.34507,48.18862],[16.34533,48.18866],[16.3457,48.18871],[16.34802,48.18909],[16.34843,48.18916],[16.34884,48.18923],[16.35012,48.18946],[16.35072,48.18956],[16.35101,48.18962],[16.35116,48.18965],[16.3513,48.18968],[16.35144,48.18972],[16.35158,48.18977],[16.35171,48.18981],[16.35184,48.18986],[16.35196,48.18992],[16.35208,48.18997],[16.35215,48.19001],[16.35232,48.19009],[16.35243,48.19016],[16.35253,48.19023],[16.35263,48.1903],[16.35273,48.19038],[16.35292,48.19053],[16.35318,48.19077],[16.35346,48.19102],[16.35352,48.19109],[16.35364,48.19121],[16.35378,48.19136],[16.35392,48.19152],[16.35404,48.19168],[16.35414,48.19185],[16.35424,48.19202],[16.35431,48.19214],[16.35435,48.19222],[16.35439,48.19232],[16.35443,48.19241],[16.35449,48.19256],[16.35451,48.19264],[16.35453,48.19272],[16.35455,48.1928],[16.35456,48.19286],[16.35457,48.19299],[16.35457,48.19308],[16.35457,48.19316],[16.35456,48.19325],[16.35444,48.19419],[16.35443,48.19433],[16.35442,48.19441],[16.35442,48.19448],[16.35442,48.19455],[16.35443,48.19462],[16.35444,48.19469],[16.35445,48.19476],[16.35447,48.19484],[16.35449,48.1949],[16.35452,48.19497],[16.35456,48.19505],[16.35459,48.1951],[16.35463,48.19516],[16.35468,48.19523],[16.35473,48.19529],[16.35478,48.19535],[16.35484,48.19541],[16.3549,48.19547],[16.35497,48.19553],[16.35511,48.19564],[16.35518,48.1957],[16.35532,48.19579],[16.35546,48.19588],[16.35557,48.19594],[16.35568,48.19599],[16.35579,48.19605],[16.35591,48.1961],[16.35603,48.19615],[16.35615,48.19619],[16.35627,48.19623],[16.35642,48.19627],[16.35657,48.19631],[16.35672,48.19635],[16.35687,48.19638],[16.3581,48.19662],[16.36022,48.19704],[16.36062,48.19713],[16.36081,48.19718],[16.36101,48.19723],[16.36112,48.19726],[16.36121,48.19729],[16.3614,48.19736],[16.36159,48.19743],[16.36177,48.19751],[16.36193,48.19758],[16.36222,48.19773],[16.36252,48.19788],[16.36526,48.19936],[16.36569,48.1996],[16.36612,48.19985],[16.36656,48.20011],[16.36671,48.20019],[16.36679,48.20023],[16.36695,48.20031],[16.36703,48.20034],[16.36712,48.20038],[16.36721,48.20041],[16.36736,48.20045],[16.36744,48.20047],[16.36752,48.20048],[16.36767,48.20051],[16.36782,48.20053],[16.3679,48.20053],[16.36801,48.20054],[16.36813,48.20054],[16.36828,48.20053],[16.36845,48.20051],[16.36854,48.2005],[16.3688,48.20046],[16.36938,48.20037],[16.37003,48.20025],[16.37041,48.20018],[16.37076,48.20011],[16.37118,48.20002],[16.3724,48.19975],[16.37262,48.1997],[16.37273,48.19969],[16.37284,48.19967],[16.37306,48.19965],[16.37324,48.19964],[16.37343,48.19964],[16.37365,48.19965],[16.37388,48.19967],[16.37404,48.19969],[16.37423,48.19972],[16.37444,48.19977],[16.37559,48.20006],[16.37578,48.20011],[16.37597,48.20017],[16.37615,48.20023],[16.37624,48.20026],[16.37633,48.2003],[16.37643,48.20034],[16.37651,48.20039],[16.3766,48.20043],[16.37668,48.20048],[16.37676,48.20053],[16.37684,48.20059],[16.37698,48.2007],[16.37711,48.20081],[16.37834,48.20192],[16.37847,48.20203],[16.37854,48.20209],[16.37869,48.2022],[16.37877,48.20225],[16.37969,48.20284],[16.38026,48.20321],[16.3804,48.2033],[16.38055,48.20338],[16.38071,48.20345],[16.38088,48.20352],[16.38096,48.20355],[16.38114,48.2036],[16.38131,48.20364],[16.38177,48.20373],[16.38197,48.20377],[16.38207,48.2038],[16.38217,48.20383],[16.38227,48.20386],[16.38237,48.2039],[16.38246,48.20394],[16.38255,48.20398],[16.38264,48.20402],[16.38273,48.20407],[16.38281,48.20412],[16.38289,48.20418],[16.38296,48.20423],[16.38303,48.20429],[16.3831,48.20435],[16.38316,48.20441],[16.38326,48.20452],[16.38335,48.20464],[16.38394,48.20544],[16.38405,48.2056],[16.3843,48.20597],[16.38482,48.20671],[16.38494,48.20688],[16.3852,48.2073],[16.38525,48.20738],[16.38527,48.20742],[16.3853,48.2075],[16.38532,48.20759],[16.38537,48.20782],[16.38539,48.20791],[16.3854,48.20799],[16.3854,48.20808],[16.3854,48.20812],[16.38539,48.2082],[16.38537,48.20828],[16.38535,48.20836],[16.38533,48.2084],[16.38529,48.20848],[16.38524,48.20856],[16.38414,48.21029],[16.38407,48.21039],[16.38404,48.21043],[16.38399,48.21049],[16.38394,48.21054],[16.38389,48.21059],[16.38383,48.21064],[16.38377,48.21069],[16.3837,48.21074],[16.38364,48.21078],[16.38357,48.21083],[16.38349,48.21087],[16.38342,48.2109],[16.38334,48.21094],[16.38319,48.211],[16.38304,48.21105],[16.38264,48.21118],[16.38237,48.21127],[16.38223,48.21131],[16.38209,48.21135],[16.38193,48.21139],[16.38177,48.21143],[16.3816,48.21146],[16.38143,48.21148],[16.38127,48.2115],[16.38112,48.21152],[16.38084,48.21154],[16.38015,48.21157],[16.37998,48.21159],[16.3798,48.2116],[16.37948,48.21164],[16.37923,48.21167],[16.37879,48.21175],[16.37835,48.21183],[16.37813,48.21187],[16.37788,48.21193],[16.37761,48.212],[16.37734,48.21208],[16.37712,48.21214],[16.37701,48.21218],[16.37684,48.21224],[16.37667,48.21231],[16.3765,48.21238],[16.37634,48.21245],[16.37619,48.21253],[16.37604,48.21262],[16.37587,48.21271],[16.37571,48.21282],[16.37559,48.2129],[16.37547,48.21298],[16.37535,48.21307],[16.37525,48.21315],[16.37502,48.21334],[16.3748,48.21354],[16.3747,48.21363],[16.37456,48.21377],[16.37443,48.21391],[16.37431,48.21406],[16.37419,48.21421],[16.37408,48.21437],[16.37365,48.215],[16.37355,48.21513],[16.37349,48.21521],[16.37332,48.21542],[16.37321,48.21555],[16.37308,48.2157],[16.37294,48.21584],[16.37279,48.21599],[16.37266,48.2161],[16.37205,48.21666],[16.37155,48.21711],[16.37142,48.21723],[16.37128,48.21734],[16.37103,48.21754],[16.37077,48.21774],[16.3692,48.21887],[16.36896,48.21905],[16.36884,48.21914],[16.36869,48.21926],[16.36862,48.21933],[16.36852,48.21943],[16.36843,48.21953],[16.36834,48.21963],[16.36826,48.21974],[16.36819,48.21985],[16.36813,48.21996],[16.36807,48.22007],[16.36802,48.22017],[16.36798,48.22027],[16.36795,48.22037],[16.36788,48.22059],[16.36784,48.22074],[16.3678,48.22088],[16.36774,48.22113],[16.3677,48.22138],[16.36766,48.22163],[16.36765,48.22178],[16.36759,48.22235],[16.36741,48.22425],[16.36739,48.22445],[16.36737,48.22456],[16.36735,48.22466],[16.36732,48.22477],[16.36729,48.22485],[16.36726,48.22493],[16.36721,48.22505],[16.36718,48.2251],[16.36713,48.22519],[16.36708,48.22528],[16.367,48.22539],[16.36696,48.22544],[16.36687,48.22556],[16.36682,48.22561],[16.36672,48.2257],[16.36663,48.22579],[16.36653,48.22588],[16.36642,48.22596],[16.36621,48.22613],[16.36498,48.22705],[16.36489,48.22712],[16.36476,48.22724],[16.36447,48.22749],[16.36423,48.22771],[16.36411,48.22783],[16.36323,48.22872],[16.36306,48.2289],[16.36291,48.22908],[16.36277,48.22925],[16.36264,48.22943],[16.36252,48.22961],[16.36241,48.22979],[16.36207,48.2304],[16.36177,48.23094],[16.36151,48.23141],[16.36142,48.23157],[16.36133,48.23172],[16.36122,48.23187],[16.36111,48.23202],[16.361,48.23215],[16.36088,48.23228],[16.36075,48.2324],[16.36062,48.23252],[16.36047,48.23263],[16.36035,48.23273],[16.36022,48.23282],[16.35975,48.23314],[16.35957,48.23328],[16.35948,48.23335],[16.35938,48.23343],[16.35929,48.23352],[16.35921,48.23361],[16.35914,48.2337],[16.35906,48.2338],[16.359,48.23389],[16.35894,48.23399],[16.35889,48.23409],[16.35885,48.23419],[16.35881,48.2343],[16.35873,48.23455],[16.35866,48.2348],[16.35864,48.23488],[16.35859,48.23506],[16.35853,48.23531],[16.35851,48.23541],[16.3585,48.23549],[16.3585,48.23558],[16.35849,48.23567],[16.3585,48.23575],[16.3585,48.23583],[16.35851,48.2359],[16.35853,48.23598],[16.35855,48.23605],[16.35857,48.23611],[16.35861,48.23622],[16.35865,48.23632],[16.3587,48.23642],[16.35875,48.23651],[16.35881,48.2366],[16.35894,48.23679],[16.35908,48.23697],[16.35968,48.23775],[16.35983,48.23795],[16.36053,48.23897],[16.36062,48.2391],[16.36074,48.23926],[16.3609,48.23947],[16.36198,48.24086],[16.3622,48.24116],[16.36235,48.24136],[16.36303,48.2423],[16.36318,48.24253],[16.36333,48.24276],[16.36382,48.24362],[16.36392,48.24379],[16.36403,48.24401],[16.36414,48.24424],[16.36423,48.24447],[16.36431,48.24471],[16.36436,48.24488],[16.36448,48.2453],[16.36453,48.24552],[16.3647,48.24634],[16.36474,48.24652],[16.36478,48.24663],[16.36481,48.24674],[16.36486,48.24684],[16.36491,48.24695],[16.36496,48.24705],[16.36501,48.24714],[16.36594,48.24864]]}},{"type":"Feature","properties":{"lineId":"U6","name":"U6","longName":"Siebenhirten - Floridsdorf Baustellenfahrplan","mode":"underground","color":"#9D6830","stops":[{"name":"Floridsdorf","lon":16.40037,"lat":48.25624},{"name":"Neue Donau","lon":16.39477,"lat":48.24643},{"name":"Handelskai","lon":16.38564,"lat":48.2419},{"name":"Dresdner Straße","lon":16.38004,"lat":48.23726},{"name":"Jägerstraße","lon":16.36869,"lat":48.23526},{"name":"Spittelau","lon":16.35808,"lat":48.23563},{"name":"Nußdorfer Straße","lon":16.35244,"lat":48.23139},{"name":"Währinger Str.-Volksoper","lon":16.34945,"lat":48.2256},{"name":"Michelbeuern-AKH","lon":16.34419,"lat":48.22125},{"name":"Alser Straße","lon":16.34179,"lat":48.21683},{"name":"Josefstädter Straße","lon":16.3391,"lat":48.2115},{"name":"Thaliastraße","lon":16.33794,"lat":48.2078},{"name":"Burggasse-Stadthalle","lon":16.33715,"lat":48.20328},{"name":"Westbahnhof","lon":16.33916,"lat":48.1967},{"name":"Gumpendorfer Straße","lon":16.33747,"lat":48.19085},{"name":"Längenfeldgasse","lon":16.33488,"lat":48.18491},{"name":"Niederhofstraße","lon":16.33112,"lat":48.18082},{"name":"Meidling","lon":16.33134,"lat":48.17353},{"name":"Tscherttegasse","lon":16.32751,"lat":48.16477},{"name":"Am Schöpfwerk","lon":16.32414,"lat":48.1607},{"name":"Alterlaa","lon":16.31675,"lat":48.15073},{"name":"Erlaaer Straße","lon":16.31649,"lat":48.1423},{"name":"Perfektastraße","lon":16.31322,"lat":48.13667},{"name":"Siebenhirten","lon":16.30967,"lat":48.13005}],"lengthKm":17.4},"geometry":{"type":"LineString","coordinates":[[16.40034,48.25625],[16.40023,48.25611],[16.40011,48.25596],[16.4,48.2558],[16.39985,48.25559],[16.39972,48.25537],[16.39959,48.25516],[16.39951,48.25502],[16.39943,48.25486],[16.39932,48.25462],[16.39844,48.25278],[16.3983,48.25247],[16.39817,48.25216],[16.39702,48.2493],[16.39697,48.24917],[16.39683,48.24889],[16.39669,48.24861],[16.39652,48.24834],[16.39634,48.24807],[16.39614,48.2478],[16.39592,48.24754],[16.39579,48.24739],[16.39547,48.24705],[16.39514,48.24673],[16.3948,48.24642],[16.39457,48.24621],[16.39434,48.24602],[16.39409,48.24582],[16.39396,48.24572],[16.39383,48.24563],[16.39366,48.24552],[16.3935,48.24542],[16.39332,48.24533],[16.39314,48.24524],[16.39298,48.24516],[16.39266,48.24502],[16.39089,48.24429],[16.3906,48.24417],[16.39045,48.2441],[16.38608,48.24206],[16.38566,48.24187],[16.38526,48.24169],[16.38489,48.24153],[16.3846,48.24141],[16.38446,48.24135],[16.38433,48.24128],[16.38419,48.24121],[16.38406,48.24114],[16.38392,48.24105],[16.38379,48.24097],[16.38367,48.24087],[16.38355,48.24078],[16.38344,48.24068],[16.38334,48.24058],[16.38324,48.24048],[16.38314,48.24035],[16.38307,48.24026],[16.383,48.24015],[16.38294,48.24005],[16.38288,48.23994],[16.38283,48.23984],[16.38278,48.23973],[16.38259,48.2393],[16.38249,48.23909],[16.38244,48.23898],[16.38237,48.23888],[16.3823,48.23877],[16.38222,48.23866],[16.38213,48.23856],[16.38204,48.23846],[16.38194,48.23836],[16.38183,48.23826],[16.38172,48.23817],[16.3816,48.23808],[16.38148,48.238],[16.38135,48.23792],[16.38122,48.23785],[16.38109,48.23778],[16.38095,48.23771],[16.38068,48.23758],[16.38003,48.23728],[16.37945,48.23701],[16.37923,48.23691],[16.37768,48.23613],[16.37749,48.23604],[16.3773,48.23596],[16.3771,48.23587],[16.37689,48.23579],[16.37668,48.23572],[16.37646,48.23565],[16.37624,48.23559],[16.37602,48.23553],[16.3758,48.23549],[16.37554,48.23544],[16.3753,48.2354],[16.37506,48.23537],[16.37482,48.23534],[16.37458,48.23532],[16.37433,48.2353],[16.37393,48.23529],[16.37166,48.23525],[16.37135,48.23525],[16.37104,48.23526],[16.37029,48.23529],[16.36998,48.2353],[16.36967,48.2353],[16.36948,48.2353],[16.36868,48.23528],[16.3679,48.23527],[16.36756,48.23526],[16.36722,48.23524],[16.36673,48.23521],[16.36622,48.23519],[16.36571,48.23518],[16.3652,48.23519],[16.36469,48.23521],[16.36451,48.23522],[16.36433,48.23523],[16.36384,48.23527],[16.36335,48.23532],[16.36317,48.23534],[16.36299,48.23536],[16.36257,48.23543],[16.36216,48.2355],[16.36149,48.23562],[16.3613,48.23565],[16.36111,48.23568],[16.36089,48.23571],[16.36067,48.23573],[16.36045,48.23575],[16.36026,48.23575],[16.36006,48.23576],[16.35987,48.23576],[16.35967,48.23575],[16.3594,48.23574],[16.35917,48.23572],[16.35895,48.2357],[16.35809,48.23561],[16.35748,48.23555],[16.35715,48.23551],[16.35694,48.23547],[16.35683,48.23545],[16.35662,48.23541],[16.35651,48.23538],[16.35641,48.23535],[16.3563,48.23531],[16.3562,48.23527],[16.35611,48.23523],[16.35601,48.23519],[16.35592,48.23514],[16.35581,48.23507],[16.35575,48.23503],[16.35567,48.23498],[16.35559,48.23492],[16.35552,48.23486],[16.35545,48.23479],[16.35539,48.23473],[16.35534,48.23468],[16.35526,48.23457],[16.35519,48.23447],[16.35512,48.23437],[16.35506,48.23427],[16.35501,48.23416],[16.35497,48.23406],[16.35494,48.23399],[16.3546,48.23294],[16.35454,48.23277],[16.35449,48.23265],[16.35443,48.23254],[16.3544,48.23249],[16.35436,48.23243],[16.35429,48.23235],[16.35422,48.23227],[16.35417,48.23223],[16.35408,48.23215],[16.35403,48.23211],[16.35391,48.23203],[16.3538,48.23196],[16.35363,48.23186],[16.35353,48.23181],[16.35338,48.23173],[16.35317,48.23164],[16.35247,48.23136],[16.35183,48.23111],[16.35163,48.23102],[16.35144,48.23093],[16.35135,48.23089],[16.35127,48.23084],[16.3512,48.23079],[16.35112,48.23074],[16.35104,48.23068],[16.35096,48.23062],[16.35089,48.23055],[16.35082,48.23048],[16.35075,48.23042],[16.35069,48.23034],[16.35064,48.23027],[16.35059,48.2302],[16.35055,48.23012],[16.35051,48.23004],[16.35047,48.22996],[16.35045,48.22989],[16.35042,48.22981],[16.3504,48.22974],[16.34958,48.22605],[16.34948,48.2256],[16.34917,48.22418],[16.34913,48.22405],[16.34909,48.22391],[16.34906,48.22384],[16.34902,48.22376],[16.34898,48.22369],[16.34893,48.22361],[16.34888,48.22354],[16.34882,48.22347],[16.34873,48.22337],[16.34866,48.2233],[16.34859,48.22324],[16.34851,48.22318],[16.34843,48.22312],[16.34835,48.22306],[16.34826,48.22301],[16.34817,48.22296],[16.34807,48.22291],[16.34798,48.22287],[16.34788,48.22283],[16.34777,48.22279],[16.34767,48.22275],[16.34745,48.22269],[16.34723,48.22263],[16.34659,48.22246],[16.34641,48.22241],[16.3462,48.22234],[16.34599,48.22227],[16.34579,48.2222],[16.34559,48.22211],[16.34542,48.22204],[16.34526,48.22196],[16.34514,48.2219],[16.34497,48.2218],[16.3448,48.2217],[16.34466,48.22161],[16.34452,48.22152],[16.34442,48.22146],[16.34429,48.22136],[16.34417,48.22127],[16.34411,48.22121],[16.34398,48.2211],[16.34386,48.22099],[16.34375,48.22087],[16.34364,48.22074],[16.34359,48.22068],[16.34354,48.22061],[16.3435,48.22054],[16.34346,48.22047],[16.34343,48.22041],[16.34338,48.22029],[16.34272,48.21869],[16.34255,48.21827],[16.34243,48.21798],[16.34237,48.21785],[16.34228,48.21768],[16.34182,48.21682],[16.33958,48.21271],[16.33944,48.21245],[16.33937,48.21232],[16.33932,48.2122],[16.33927,48.21208],[16.33923,48.21196],[16.3392,48.21186],[16.33918,48.21175],[16.33916,48.21166],[16.33914,48.21149],[16.33902,48.21057],[16.33891,48.2097],[16.33888,48.20951],[16.33886,48.20941],[16.33883,48.2093],[16.3388,48.20918],[16.33876,48.20907],[16.33871,48.20896],[16.33865,48.20885],[16.3386,48.20876],[16.33848,48.20858],[16.33797,48.20779],[16.33732,48.20678],[16.33726,48.20668],[16.3372,48.20657],[16.33714,48.20647],[16.3371,48.20636],[16.33706,48.20627],[16.33703,48.20617],[16.33701,48.20607],[16.33699,48.20598],[16.33697,48.20588],[16.33696,48.20577],[16.33696,48.20566],[16.33696,48.20555],[16.33698,48.20533],[16.33718,48.20329],[16.33728,48.20227],[16.33729,48.20212],[16.33732,48.20198],[16.33735,48.20181],[16.33739,48.20164],[16.33745,48.20147],[16.33748,48.20138],[16.3379,48.20028],[16.338,48.20002],[16.33805,48.19986],[16.3381,48.19969],[16.33823,48.19917],[16.33827,48.19902],[16.33832,48.19887],[16.33842,48.19861],[16.33913,48.1967],[16.33932,48.19621],[16.3394,48.19597],[16.33944,48.19585],[16.33947,48.19572],[16.3395,48.1956],[16.33952,48.19548],[16.33953,48.19536],[16.33954,48.19525],[16.33953,48.19513],[16.33952,48.19502],[16.3395,48.19489],[16.33947,48.19477],[16.33944,48.19464],[16.33939,48.19452],[16.33934,48.1944],[16.33928,48.19428],[16.33922,48.19416],[16.33915,48.19404],[16.33881,48.19345],[16.33858,48.19305],[16.33769,48.19149],[16.33763,48.19138],[16.33758,48.19126],[16.33756,48.1912],[16.33753,48.1911],[16.33751,48.191],[16.3375,48.1909],[16.33751,48.19085],[16.33751,48.19076],[16.33753,48.19066],[16.33755,48.19061],[16.33759,48.1905],[16.33763,48.1904],[16.33819,48.18912],[16.33823,48.18901],[16.33825,48.18896],[16.33827,48.1889],[16.33828,48.18884],[16.33829,48.18879],[16.3383,48.1887],[16.3383,48.18861],[16.33829,48.18855],[16.33827,48.18843],[16.33824,48.18831],[16.33806,48.18765],[16.33801,48.18749],[16.33797,48.18741],[16.33793,48.18733],[16.33788,48.18724],[16.33783,48.18715],[16.33777,48.18707],[16.3377,48.18699],[16.33763,48.18691],[16.33755,48.18683],[16.33747,48.18675],[16.33738,48.18668],[16.33729,48.18661],[16.3372,48.18655],[16.33711,48.1865],[16.33702,48.18644],[16.33663,48.18621],[16.33651,48.18614],[16.33639,48.18606],[16.33628,48.18598],[16.33619,48.18591],[16.33519,48.18515],[16.33503,48.18503],[16.33487,48.18492],[16.33468,48.1848],[16.33449,48.18468],[16.3343,48.18457],[16.33422,48.18452],[16.33405,48.18443],[16.3339,48.18437],[16.33375,48.1843],[16.3336,48.18424],[16.33345,48.18418],[16.33298,48.18402],[16.33286,48.18398],[16.33275,48.18393],[16.33262,48.18388],[16.3325,48.18382],[16.33239,48.18376],[16.33227,48.18369],[16.33216,48.18362],[16.33206,48.18355],[16.33196,48.18347],[16.33187,48.18339],[16.33179,48.18331],[16.33171,48.18323],[16.33163,48.18314],[16.33156,48.18305],[16.3315,48.18296],[16.33145,48.18287],[16.3314,48.18277],[16.33135,48.18268],[16.33132,48.18258],[16.33129,48.18248],[16.33127,48.1824],[16.33124,48.18222],[16.33107,48.18082],[16.33098,48.18011],[16.33097,48.17995],[16.33096,48.17978],[16.33096,48.17961],[16.33098,48.17944],[16.331,48.17927],[16.33103,48.1791],[16.33107,48.17893],[16.33112,48.17877],[16.33122,48.17845],[16.33127,48.17829],[16.33131,48.17815],[16.33132,48.1781],[16.33133,48.17802],[16.33135,48.17788],[16.33137,48.17772],[16.33139,48.17755],[16.33154,48.17572],[16.33156,48.17543],[16.33156,48.17522],[16.33155,48.175],[16.33154,48.17478],[16.33151,48.17457],[16.33148,48.17443],[16.33131,48.17353],[16.3311,48.17245],[16.33106,48.1723],[16.33103,48.17217],[16.33099,48.17204],[16.33095,48.17191],[16.3309,48.17179],[16.33084,48.17166],[16.33078,48.17154],[16.33071,48.17141],[16.33063,48.17129],[16.33054,48.17118],[16.33045,48.17107],[16.33035,48.17095],[16.33024,48.17085],[16.33013,48.17074],[16.33002,48.17064],[16.3298,48.17043],[16.32945,48.17012],[16.32923,48.16991],[16.32912,48.16981],[16.32901,48.1697],[16.32892,48.16959],[16.32882,48.16948],[16.32874,48.16937],[16.32867,48.16926],[16.3286,48.16915],[16.32854,48.16903],[16.32848,48.16892],[16.32843,48.1688],[16.32839,48.16869],[16.32836,48.16858],[16.32833,48.16847],[16.3283,48.16835],[16.32828,48.16824],[16.32825,48.16803],[16.32822,48.16782],[16.32821,48.16761],[16.3282,48.16714],[16.32819,48.16694],[16.32809,48.16573],[16.32807,48.16559],[16.32805,48.16549],[16.32803,48.1654],[16.32799,48.1653],[16.32795,48.16522],[16.3279,48.16514],[16.32787,48.1651],[16.32781,48.16503],[16.32755,48.16476],[16.32661,48.1638],[16.32648,48.16367],[16.32632,48.1635],[16.32617,48.16333],[16.32591,48.16301],[16.32566,48.16268],[16.32419,48.16069],[16.32196,48.15768],[16.32173,48.15737],[16.3216,48.15722],[16.32148,48.15707],[16.32134,48.15692],[16.32122,48.15678],[16.32108,48.15666],[16.32094,48.15653],[16.32079,48.15641],[16.32063,48.15629],[16.32045,48.15615],[16.32026,48.15603],[16.32006,48.1559],[16.31946,48.15553],[16.31926,48.15541],[16.31906,48.15528],[16.31887,48.15515],[16.31868,48.15502],[16.31848,48.15487],[16.31829,48.15471],[16.31812,48.15455],[16.31795,48.15438],[16.31789,48.1543],[16.3178,48.1542],[16.31766,48.15402],[16.31753,48.15384],[16.31741,48.15366],[16.3173,48.15347],[16.31721,48.15327],[16.31715,48.15313],[16.3171,48.15298],[16.31705,48.15284],[16.31699,48.15261],[16.31694,48.15239],[16.3169,48.15216],[16.31687,48.15195],[16.31685,48.15173],[16.31679,48.15072],[16.31675,48.15016],[16.31675,48.15005],[16.31675,48.1499],[16.31676,48.14977],[16.31677,48.14965],[16.31683,48.14923],[16.31685,48.14906],[16.31686,48.14891],[16.31687,48.14885],[16.31687,48.14877],[16.31687,48.14862],[16.31686,48.14846],[16.31685,48.14829],[16.31662,48.14467],[16.31661,48.14445],[16.31661,48.14418],[16.31661,48.14391],[16.31661,48.14364],[16.3166,48.14342],[16.31653,48.14231],[16.31648,48.14158],[16.31646,48.14141],[16.31643,48.14115],[16.31637,48.1409],[16.3163,48.14065],[16.31621,48.1404],[16.3161,48.14015],[16.31597,48.13991],[16.31583,48.13967],[16.31575,48.13956],[16.31567,48.13944],[16.31549,48.13921],[16.3153,48.13899],[16.31509,48.13878],[16.31495,48.13864],[16.31465,48.13837],[16.31451,48.13823],[16.31437,48.13808],[16.31423,48.13793],[16.3141,48.13778],[16.31398,48.13763],[16.31324,48.13666],[16.31281,48.13608],[16.31247,48.13563],[16.31234,48.13545],[16.31222,48.13527],[16.31215,48.13516],[16.31209,48.13506],[16.31201,48.13492],[16.31154,48.13403],[16.31144,48.13384],[16.31133,48.13366],[16.311,48.13318],[16.31092,48.13304],[16.31084,48.13291],[16.31077,48.13279],[16.31038,48.13207],[16.31031,48.13194],[16.3102,48.1317],[16.31009,48.13146],[16.31001,48.13122],[16.30993,48.13097],[16.3099,48.13084],[16.3097,48.13004]]}}]}